{
  "type": "FeatureCollection",
  "metadata": {
    "gcop_export_scope": "loaded-map-tiles",
    "gcop_notice": "This vector tile source does not expose a full browser-side dataset endpoint; exported features are from currently loaded map tiles."
  },
  "features": [
    {
      "type": "Feature",
      "geometry": {
        "type": "LineString",
        "coordinates": [
          [
            73.3172607421875,
            31.924192605327704
          ],
          [
            73.3282470703125,
            31.928854801809592
          ],
          [
            73.333740234375,
            31.924192605327704
          ],
          [
            73.3282470703125,
            31.924192605327704
          ],
          [
            73.32275390625,
            31.910204597744382
          ],
          [
            73.311767578125,
            31.89155061268437
          ],
          [
            73.30078125,
            31.863562548378965
          ],
          [
            73.2843017578125,
            31.80289258670676
          ],
          [
            73.2568359375,
            31.74685416292141
          ],
          [
            73.245849609375,
            31.71882222408327
          ],
          [
            73.23486328125,
            31.69545579777872
          ],
          [
            73.223876953125,
            31.672083485607402
          ],
          [
            73.2183837890625,
            31.662732913235317
          ],
          [
            73.157958984375,
            31.60660971922691
          ],
          [
            73.1414794921875,
            31.587894464070402
          ],
          [
            73.0975341796875,
            31.550452675471504
          ],
          [
            73.0810546875,
            31.536408129439607
          ],
          [
            73.070068359375,
            31.52236147042143
          ],
          [
            73.070068359375,
            31.517678781287174
          ],
          [
            73.0645751953125,
            31.512995857454683
          ]
        ]
      },
      "properties": {
        "length": 230,
        "name": "M-3",
        "route": "Lahore-Abdul Hakeem",
        "gcop_source_layer": "motorways",
        "gcop_map_layer": "motorways_label"
      }
    },
    {
      "type": "Feature",
      "geometry": {
        "type": "LineString",
        "coordinates": [
          [
            72.61962890625,
            31.170509824703444
          ],
          [
            72.6251220703125,
            31.170509824703444
          ],
          [
            72.6470947265625,
            31.189308439528162
          ],
          [
            72.6800537109375,
            31.21749936193814
          ],
          [
            72.70751953125,
            31.255074185421932
          ],
          [
            72.75146484375,
            31.311408386201634
          ],
          [
            72.7789306640625,
            31.33487103395059
          ],
          [
            72.7899169921875,
            31.34425445566805
          ],
          [
            72.8173828125,
            31.35832783341131
          ],
          [
            72.9052734375,
            31.40522387758132
          ],
          [
            72.916259765625,
            31.41460027631321
          ],
          [
            72.9547119140625,
            31.447410291428724
          ],
          [
            72.97119140625,
            31.46615371502429
          ],
          [
            72.982177734375,
            31.470838984764384
          ],
          [
            73.0206298828125,
            31.484893386890164
          ],
          [
            73.037109375,
            31.498945677962936
          ],
          [
            73.0645751953125,
            31.512995857454683
          ],
          [
            73.070068359375,
            31.52236147042143
          ]
        ]
      },
      "properties": {
        "length": 309,
        "name": "M-4",
        "route": "Pindi Bhattian-Multan",
        "gcop_source_layer": "motorways",
        "gcop_map_layer": "motorways_label"
      }
    },
    {
      "type": "Feature",
      "geometry": {
        "type": "LineString",
        "coordinates": [
          [
            72.61962890625,
            31.170509824703444
          ],
          [
            72.586669921875,
            31.14700630855657
          ],
          [
            72.5372314453125,
            31.12349696406733
          ],
          [
            72.5152587890625,
            31.109388560814963
          ],
          [
            72.4932861328125,
            31.090574094954192
          ],
          [
            72.4603271484375,
            31.057639814130127
          ],
          [
            72.454833984375,
            31.052933985705167
          ],
          [
            72.388916015625,
            31.010571059441745
          ],
          [
            72.3284912109375,
            30.954057859276134
          ],
          [
            72.2845458984375,
            30.925788712587007
          ],
          [
            72.24609375,
            30.897511207369135
          ],
          [
            72.2296142578125,
            30.892797477508182
          ],
          [
            72.2076416015625,
            30.88808351560904
          ],
          [
            72.1966552734375,
            30.88336932169227
          ],
          [
            72.1856689453125,
            30.87865489577827
          ],
          [
            72.18017578125,
            30.86922534804083
          ],
          [
            72.1746826171875,
            30.85979487256077
          ],
          [
            72.158203125,
            30.836214626064844
          ],
          [
            72.1527099609375,
            30.822063696500948
          ],
          [
            72.1417236328125,
            30.803192546290973
          ],
          [
            72.13623046875,
            30.78431768971889
          ],
          [
            72.13623046875,
            30.732392734006083
          ],
          [
            72.13623046875,
            30.718226523201352
          ],
          [
            72.13623046875,
            30.685163937659567
          ],
          [
            72.1307373046875,
            30.661540870820915
          ],
          [
            72.1142578125,
            30.614277412827747
          ],
          [
            72.09228515625,
            30.57172056519987
          ],
          [
            72.0867919921875,
            30.566990873153344
          ],
          [
            72.0538330078125,
            30.529145036680404
          ],
          [
            72.04833984375,
            30.51968127274941
          ],
          [
            72.0428466796875,
            30.50075098029069
          ],
          [
            72.037353515625,
            30.491284452100174
          ],
          [
            72.0318603515625,
            30.486550842588485
          ],
          [
            72.0208740234375,
            30.481817002827285
          ],
          [
            71.9989013671875,
            30.47234863264083
          ],
          [
            71.9879150390625,
            30.462879341709893
          ],
          [
            71.982421875,
            30.453409130203596
          ],
          [
            71.96044921875,
            30.42025614284516
          ],
          [
            71.9439697265625,
            30.401306519203587
          ],
          [
            71.927490234375,
            30.387091887781125
          ],
          [
            71.905517578125,
            30.36813582872057
          ],
          [
            71.8890380859375,
            30.358656420788776
          ],
          [
            71.8670654296875,
            30.344435586368462
          ],
          [
            71.8505859375,
            30.325471259328083
          ],
          [
            71.8450927734375,
            30.315987718557864
          ]
        ]
      },
      "properties": {
        "length": 309,
        "name": "M-4",
        "route": "Pindi Bhattian-Multan",
        "gcop_source_layer": "motorways",
        "gcop_map_layer": "motorways_label"
      }
    },
    {
      "type": "Feature",
      "geometry": {
        "type": "LineString",
        "coordinates": [
          [
            67.65380859375,
            25.145284610685067
          ],
          [
            67.56591796875,
            25.080623772444838
          ],
          [
            67.5604248046875,
            25.080623772444838
          ],
          [
            67.52197265625,
            25.080623772444838
          ],
          [
            67.4615478515625,
            25.04579224030344
          ],
          [
            67.4395751953125,
            25.040815498949115
          ],
          [
            67.43408203125,
            25.03583855563501
          ],
          [
            67.3681640625,
            25.02090651422749
          ],
          [
            67.357177734375,
            25.005972656239194
          ],
          [
            67.3516845703125,
            25.005972656239194
          ],
          [
            67.269287109375,
            24.976099493695415
          ],
          [
            67.2528076171875,
            24.976099493695415
          ],
          [
            67.2308349609375,
            24.98107885823501
          ],
          [
            67.1429443359375,
            24.996015742094002
          ],
          [
            67.137451171875,
            24.99103698246374
          ],
          [
            67.1099853515625,
            24.961160190729046
          ],
          [
            67.0880126953125,
            24.946219074360087
          ]
        ]
      },
      "properties": {
        "length": 136,
        "name": "M-9",
        "route": "Hyderabad-Karachi",
        "gcop_source_layer": "motorways",
        "gcop_map_layer": "motorways_label"
      }
    },
    {
      "type": "Feature",
      "geometry": {
        "type": "LineString",
        "coordinates": [
          [
            72.872314453125,
            33.59174327144986
          ],
          [
            72.8668212890625,
            33.596318961132695
          ],
          [
            72.861328125,
            33.60546961227189
          ],
          [
            72.8118896484375,
            33.66949697279553
          ],
          [
            72.7899169921875,
            33.67406853374199
          ],
          [
            72.762451171875,
            33.678639851675555
          ],
          [
            72.7569580078125,
            33.678639851675555
          ],
          [
            72.75146484375,
            33.68321092658006
          ],
          [
            72.7459716796875,
            33.69235234723729
          ],
          [
            72.740478515625,
            33.696922692957685
          ],
          [
            72.7349853515625,
            33.706062655101206
          ],
          [
            72.7020263671875,
            33.74718044814986
          ],
          [
            72.696533203125,
            33.75174787568194
          ],
          [
            72.6910400390625,
            33.760882000869174
          ],
          [
            72.6690673828125,
            33.77914733128647
          ],
          [
            72.652587890625,
            33.79740876757249
          ],
          [
            72.6361083984375,
            33.80653802509606
          ],
          [
            72.630615234375,
            33.81110228864701
          ],
          [
            72.61962890625,
            33.8430453147447
          ],
          [
            72.61962890625,
            33.84760762988742
          ],
          [
            72.6141357421875,
            33.852169701407405
          ],
          [
            72.59765625,
            33.852169701407405
          ],
          [
            72.5921630859375,
            33.85673152928874
          ],
          [
            72.586669921875,
            33.86129311351553
          ],
          [
            72.5811767578125,
            33.87041555094183
          ],
          [
            72.564697265625,
            33.87497640410959
          ],
          [
            72.5482177734375,
            33.88865750124074
          ],
          [
            72.542724609375,
            33.893217379440884
          ],
          [
            72.542724609375,
            33.90233640448068
          ],
          [
            72.5372314453125,
            33.906895551288656
          ],
          [
            72.53173828125,
            33.9160131134017
          ],
          [
            72.4932861328125,
            33.93880275084578
          ],
          [
            72.48779296875,
            33.93880275084578
          ],
          [
            72.4713134765625,
            33.93880275084578
          ],
          [
            72.4658203125,
            33.93880275084578
          ],
          [
            72.4603271484375,
            33.94335994657882
          ],
          [
            72.4383544921875,
            33.98436372829188
          ],
          [
            72.4163818359375,
            34.00258128543372
          ],
          [
            72.410888671875,
            34.00713506435885
          ],
          [
            72.410888671875,
            34.016241889667015
          ],
          [
            72.410888671875,
            34.03445260967645
          ],
          [
            72.410888671875,
            34.04355650412744
          ],
          [
            72.4053955078125,
            34.04355650412744
          ],
          [
            72.388916015625,
            34.06176136129719
          ],
          [
            72.3779296875,
            34.06631196472105
          ],
          [
            72.3724365234375,
            34.06631196472105
          ],
          [
            72.366943359375,
            34.070862323766306
          ],
          [
            72.2955322265625,
            34.070862323766306
          ],
          [
            72.279052734375,
            34.070862323766306
          ],
          [
            72.213134765625,
            34.06631196472105
          ],
          [
            72.147216796875,
            34.06631196472105
          ],
          [
            72.1197509765625,
            34.06631196472105
          ],
          [
            72.103271484375,
            34.06631196472105
          ],
          [
            72.09228515625,
            34.06631196472105
          ],
          [
            72.081298828125,
            34.0754124384174
          ],
          [
            72.0758056640625,
            34.08906131584993
          ],
          [
            72.059326171875,
            34.098159345215535
          ],
          [
            72.04833984375,
            34.102707993174874
          ],
          [
            72.0208740234375,
            34.10725639663117
          ],
          [
            71.9989013671875,
            34.11180455556898
          ],
          [
            71.971435546875,
            34.10725639663117
          ],
          [
            71.96044921875,
            34.10725639663117
          ],
          [
            71.9439697265625,
            34.10725639663117
          ],
          [
            71.927490234375,
            34.11180455556898
          ],
          [
            71.883544921875,
            34.11180455556898
          ],
          [
            71.87255859375,
            34.11180455556898
          ],
          [
            71.861572265625,
            34.11180455556898
          ],
          [
            71.8560791015625,
            34.11180455556898
          ],
          [
            71.8505859375,
            34.11180455556898
          ],
          [
            71.82861328125,
            34.12090013982697
          ],
          [
            71.8121337890625,
            34.12544756511612
          ],
          [
            71.806640625,
            34.12544756511612
          ],
          [
            71.8011474609375,
            34.12544756511612
          ],
          [
            71.78466796875,
            34.11635246997275
          ],
          [
            71.7572021484375,
            34.11635246997275
          ],
          [
            71.751708984375,
            34.11180455556898
          ],
          [
            71.7462158203125,
            34.11180455556898
          ],
          [
            71.74072265625,
            34.10725639663117
          ],
          [
            71.74072265625,
            34.093610452768715
          ],
          [
            71.74072265625,
            34.08906131584993
          ],
          [
            71.7352294921875,
            34.08906131584993
          ],
          [
            71.7242431640625,
            34.08451193447476
          ],
          [
            71.71875,
            34.079962308658736
          ],
          [
            71.7132568359375,
            34.0754124384174
          ],
          [
            71.7022705078125,
            34.0572105135103
          ],
          [
            71.7022705078125,
            34.05265942137599
          ],
          [
            71.6912841796875,
            34.04355650412744
          ],
          [
            71.6802978515625,
            34.04355650412744
          ],
          [
            71.6693115234375,
            34.03445260967645
          ],
          [
            71.6583251953125,
            34.02990029603906
          ],
          [
            71.641845703125,
            34.02534773814796
          ],
          [
            71.619873046875,
            34.02534773814796
          ]
        ]
      },
      "properties": {
        "length": 155,
        "name": "M-1",
        "route": "Peshawar-Islamabad",
        "gcop_source_layer": "motorways",
        "gcop_map_layer": "motorways_label"
      }
    },
    {
      "type": "Feature",
      "geometry": {
        "type": "LineString",
        "coordinates": [
          [
            73.3172607421875,
            31.924192605327704
          ],
          [
            73.3062744140625,
            31.928854801809592
          ],
          [
            73.2733154296875,
            31.928854801809592
          ],
          [
            73.1744384765625,
            31.938178485591123
          ],
          [
            73.1414794921875,
            31.947501223670642
          ],
          [
            73.135986328125,
            31.952162238024968
          ],
          [
            73.125,
            31.9568230158972
          ],
          [
            73.114013671875,
            31.96614386212012
          ],
          [
            73.1085205078125,
            31.980123357368015
          ],
          [
            73.10302734375,
            31.9941007232608
          ],
          [
            73.10302734375,
            31.998759371947315
          ],
          [
            73.092041015625,
            32.017391599804
          ],
          [
            73.0810546875,
            32.0453328388585
          ],
          [
            73.0755615234375,
            32.04998888314202
          ],
          [
            73.070068359375,
            32.08722870829662
          ],
          [
            73.0645751953125,
            32.11980111179328
          ],
          [
            73.05908203125,
            32.13840869677249
          ],
          [
            73.0535888671875,
            32.15236189465577
          ],
          [
            73.048095703125,
            32.17096283641325
          ],
          [
            73.037109375,
            32.18026188320705
          ],
          [
            73.037109375,
            32.18955998041358
          ],
          [
            73.037109375,
            32.21280106801518
          ],
          [
            73.0316162109375,
            32.22674287041066
          ],
          [
            73.0316162109375,
            32.24997445586331
          ],
          [
            73.0316162109375,
            32.28713263261636
          ],
          [
            73.026123046875,
            32.30570601389428
          ],
          [
            73.01513671875,
            32.324275588876546
          ],
          [
            73.0096435546875,
            32.338200271527754
          ],
          [
            72.9876708984375,
            32.36140331527544
          ],
          [
            72.9766845703125,
            32.38460040620993
          ],
          [
            72.94921875,
            32.41706632846282
          ],
          [
            72.9437255859375,
            32.42170336417894
          ],
          [
            72.8887939453125,
            32.45415593941475
          ],
          [
            72.8668212890625,
            32.46806060917602
          ],
          [
            72.8448486328125,
            32.49123028794759
          ],
          [
            72.83935546875,
            32.49586350791503
          ],
          [
            72.8338623046875,
            32.50512923191894
          ],
          [
            72.8173828125,
            32.54681317351513
          ],
          [
            72.79541015625,
            32.588477769459146
          ],
          [
            72.784423828125,
            32.61161640317033
          ],
          [
            72.7789306640625,
            32.62549671451373
          ],
          [
            72.7734375,
            32.63012300670739
          ],
          [
            72.7569580078125,
            32.644000448276756
          ],
          [
            72.7459716796875,
            32.64862578373672
          ],
          [
            72.740478515625,
            32.64862578373672
          ],
          [
            72.740478515625,
            32.65325087996882
          ],
          [
            72.7459716796875,
            32.657875736955276
          ],
          [
            72.7459716796875,
            32.66250035467837
          ],
          [
            72.7459716796875,
            32.66712473312033
          ],
          [
            72.7569580078125,
            32.676372772089834
          ],
          [
            72.7569580078125,
            32.68099643258195
          ],
          [
            72.7569580078125,
            32.685619853722
          ],
          [
            72.762451171875,
            32.69024303549226
          ],
          [
            72.75146484375,
            32.694865977875054
          ],
          [
            72.75146484375,
            32.69948868085268
          ],
          [
            72.75146484375,
            32.70873336852159
          ],
          [
            72.7459716796875,
            32.722598604044066
          ],
          [
            72.7459716796875,
            32.73646168396553
          ],
          [
            72.7349853515625,
            32.76418137510082
          ],
          [
            72.7239990234375,
            32.76880048488168
          ],
          [
            72.718505859375,
            32.76880048488168
          ],
          [
            72.7130126953125,
            32.782656376029635
          ],
          [
            72.70751953125,
            32.791892438123696
          ],
          [
            72.7020263671875,
            32.791892438123696
          ],
          [
            72.6800537109375,
            32.791892438123696
          ],
          [
            72.674560546875,
            32.791892438123696
          ],
          [
            72.6690673828125,
            32.79651010951669
          ],
          [
            72.6580810546875,
            32.80112754111693
          ],
          [
            72.6580810546875,
            32.805744732906874
          ]
        ]
      },
      "properties": {
        "length": 367,
        "name": "M-2",
        "route": "Lahore-Islamabad",
        "gcop_source_layer": "motorways",
        "gcop_map_layer": "motorways_label"
      }
    },
    {
      "type": "Feature",
      "geometry": {
        "type": "LineString",
        "coordinates": [
          [
            74.2291259765625,
            31.46615371502429
          ],
          [
            74.2291259765625,
            31.470838984764384
          ],
          [
            74.2291259765625,
            31.489577718501934
          ],
          [
            74.2510986328125,
            31.512995857454683
          ],
          [
            74.2620849609375,
            31.53172614451715
          ],
          [
            74.2620849609375,
            31.536408129439607
          ],
          [
            74.2620849609375,
            31.54108987958581
          ],
          [
            74.234619140625,
            31.55981453201842
          ],
          [
            74.2181396484375,
            31.592573630393332
          ],
          [
            74.212646484375,
            31.60660971922691
          ],
          [
            74.2071533203125,
            31.620643692450557
          ],
          [
            74.2071533203125,
            31.629998499002554
          ],
          [
            74.2071533203125,
            31.653381399664
          ],
          [
            74.20166015625,
            31.662732913235317
          ],
          [
            74.1961669921875,
            31.676758418795515
          ],
          [
            74.190673828125,
            31.681433116625954
          ],
          [
            74.1796875,
            31.68610757907949
          ],
          [
            74.1741943359375,
            31.690781806136826
          ],
          [
            74.124755859375,
            31.723494802828597
          ],
          [
            74.1082763671875,
            31.728167146023935
          ],
          [
            74.0478515625,
            31.74218276211799
          ],
          [
            74.014892578125,
            31.74685416292141
          ],
          [
            73.9874267578125,
            31.751525328078912
          ],
          [
            73.98193359375,
            31.751525328078912
          ],
          [
            73.9544677734375,
            31.76553740948438
          ],
          [
            73.9324951171875,
            31.77020763186671
          ],
          [
            73.9105224609375,
            31.78421688448738
          ],
          [
            73.8885498046875,
            31.788886163788447
          ],
          [
            73.80615234375,
            31.821564514920738
          ],
          [
            73.7786865234375,
            31.826231907142883
          ],
          [
            73.76220703125,
            31.835565983656224
          ],
          [
            73.740234375,
            31.840232667909362
          ],
          [
            73.7347412109375,
            31.844899116134755
          ],
          [
            73.71826171875,
            31.85423130442635
          ],
          [
            73.7127685546875,
            31.858897044454523
          ],
          [
            73.67431640625,
            31.868227816180678
          ],
          [
            73.6083984375,
            31.89621446335144
          ],
          [
            73.58642578125,
            31.900878077763068
          ],
          [
            73.5479736328125,
            31.914867503276227
          ],
          [
            73.5260009765625,
            31.914867503276227
          ],
          [
            73.49853515625,
            31.914867503276227
          ],
          [
            73.4765625,
            31.914867503276227
          ],
          [
            73.421630859375,
            31.919530172476954
          ],
          [
            73.3721923828125,
            31.919530172476954
          ],
          [
            73.3612060546875,
            31.919530172476954
          ],
          [
            73.3502197265625,
            31.924192605327704
          ],
          [
            73.333740234375,
            31.924192605327704
          ],
          [
            73.3172607421875,
            31.924192605327704
          ]
        ]
      },
      "properties": {
        "length": 367,
        "name": "M-2",
        "route": "Lahore-Islamabad",
        "gcop_source_layer": "motorways",
        "gcop_map_layer": "motorways_label"
      }
    },
    {
      "type": "Feature",
      "geometry": {
        "type": "LineString",
        "coordinates": [
          [
            72.6580810546875,
            32.805744732906874
          ],
          [
            72.66357421875,
            32.81497839698581
          ],
          [
            72.6580810546875,
            32.82421110161336
          ],
          [
            72.6580810546875,
            32.838058359277056
          ],
          [
            72.6580810546875,
            32.84728866466379
          ],
          [
            72.652587890625,
            32.85651801010957
          ],
          [
            72.652587890625,
            32.87958717306631
          ],
          [
            72.652587890625,
            32.90265033334124
          ],
          [
            72.652587890625,
            32.91187391621321
          ],
          [
            72.674560546875,
            32.925707488760395
          ],
          [
            72.6800537109375,
            32.934928669082325
          ],
          [
            72.685546875,
            32.93953889877841
          ],
          [
            72.6690673828125,
            32.962586441917466
          ],
          [
            72.66357421875,
            32.98102014898147
          ],
          [
            72.652587890625,
            32.99484290420989
          ],
          [
            72.6470947265625,
            33.00405687168934
          ],
          [
            72.6470947265625,
            33.0178760185549
          ],
          [
            72.6416015625,
            33.027087580028734
          ],
          [
            72.6361083984375,
            33.063924198120645
          ],
          [
            72.6251220703125,
            33.08233672856376
          ],
          [
            72.6251220703125,
            33.10534697199519
          ],
          [
            72.6251220703125,
            33.10994829789429
          ],
          [
            72.630615234375,
            33.114549382824535
          ],
          [
            72.630615234375,
            33.119150226768866
          ],
          [
            72.6251220703125,
            33.128351191631566
          ],
          [
            72.6251220703125,
            33.13755119234614
          ],
          [
            72.6251220703125,
            33.142150831105354
          ],
          [
            72.6361083984375,
            33.15134938534251
          ],
          [
            72.652587890625,
            33.16054697509142
          ],
          [
            72.652587890625,
            33.17434155100207
          ],
          [
            72.66357421875,
            33.18813395605041
          ],
          [
            72.66357421875,
            33.19732768648872
          ],
          [
            72.674560546875,
            33.21111647241685
          ],
          [
            72.685546875,
            33.22030778968541
          ],
          [
            72.696533203125,
            33.22030778968541
          ],
          [
            72.7020263671875,
            33.22949814144951
          ],
          [
            72.718505859375,
            33.23868752757414
          ],
          [
            72.7349853515625,
            33.247875947924385
          ],
          [
            72.75146484375,
            33.261656767328006
          ],
          [
            72.762451171875,
            33.26624989076272
          ],
          [
            72.7734375,
            33.289211884431424
          ],
          [
            72.7789306640625,
            33.31675830290706
          ],
          [
            72.7899169921875,
            33.33052824902808
          ],
          [
            72.8118896484375,
            33.3442960191357
          ],
          [
            72.8118896484375,
            33.348884792201716
          ],
          [
            72.8173828125,
            33.37641235124677
          ],
          [
            72.8173828125,
            33.39475921857799
          ],
          [
            72.828369140625,
            33.408516828002675
          ],
          [
            72.828369140625,
            33.41310221370827
          ],
          [
            72.828369140625,
            33.422272258866045
          ],
          [
            72.8228759765625,
            33.43602551072033
          ],
          [
            72.828369140625,
            33.43602551072033
          ],
          [
            72.8338623046875,
            33.44519313450846
          ],
          [
            72.83935546875,
            33.47269019266666
          ],
          [
            72.83935546875,
            33.47727218776036
          ],
          [
            72.83935546875,
            33.48185394054359
          ],
          [
            72.872314453125,
            33.50475906922608
          ],
          [
            72.894287109375,
            33.527658137677335
          ],
          [
            72.8997802734375,
            33.532237223959086
          ],
          [
            72.8997802734375,
            33.54139466898275
          ],
          [
            72.9052734375,
            33.55055114384406
          ],
          [
            72.8997802734375,
            33.55512901742287
          ],
          [
            72.894287109375,
            33.56428403679499
          ],
          [
            72.872314453125,
            33.59174327144986
          ]
        ]
      },
      "properties": {
        "length": 367,
        "name": "M-2",
        "route": "Lahore-Islamabad",
        "gcop_source_layer": "motorways",
        "gcop_map_layer": "motorways_label"
      }
    },
    {
      "type": "Feature",
      "geometry": {
        "type": "MultiLineString",
        "coordinates": [
          [
            [
              69.0106201171875,
              27.717573198352596
            ],
            [
              68.983154296875,
              27.683528083787763
            ],
            [
              68.97216796875,
              27.673798957817638
            ],
            [
              68.9666748046875,
              27.668934069896224
            ],
            [
              68.9501953125,
              27.664068965384516
            ],
            [
              68.8787841796875,
              27.64460638194332
            ]
          ],
          [
            [
              69.0655517578125,
              27.829360859789787
            ],
            [
              69.06005859375,
              27.819644755099446
            ],
            [
              69.0545654296875,
              27.80992778090838
            ],
            [
              69.0545654296875,
              27.805068967813085
            ],
            [
              69.06005859375,
              27.780771643348217
            ],
            [
              69.0545654296875,
              27.77105119317227
            ],
            [
              69.0545654296875,
              27.7661906423875
            ],
            [
              69.0106201171875,
              27.717573198352596
            ]
          ],
          [
            [
              69.2138671875,
              27.955591004642557
            ],
            [
              69.19189453125,
              27.93132741229364
            ],
            [
              69.180908203125,
              27.92162044950844
            ],
            [
              69.10400390625,
              27.882783884259112
            ],
            [
              69.0985107421875,
              27.877928333679492
            ],
            [
              69.0875244140625,
              27.86821657951407
            ],
            [
              69.0655517578125,
              27.829360859789787
            ]
          ],
          [
            [
              69.466552734375,
              28.09136628140695
            ],
            [
              69.444580078125,
              28.076827124762374
            ],
            [
              69.4390869140625,
              28.07198030177986
            ],
            [
              69.4281005859375,
              28.07198030177986
            ],
            [
              69.4171142578125,
              28.06713326012151
            ],
            [
              69.3511962890625,
              28.057438520876673
            ],
            [
              69.334716796875,
              28.052590823339855
            ],
            [
              69.2962646484375,
              28.023500048883022
            ],
            [
              69.246826171875,
              27.99440141104617
            ],
            [
              69.2413330078125,
              27.989550873955807
            ],
            [
              69.2138671875,
              27.955591004642557
            ]
          ],
          [
            [
              69.7686767578125,
              28.318888915773826
            ],
            [
              69.752197265625,
              28.309216980457762
            ],
            [
              69.7412109375,
              28.299544165609092
            ],
            [
              69.7137451171875,
              28.251166905231486
            ],
            [
              69.6917724609375,
              28.22697003891834
            ],
            [
              69.67529296875,
              28.207608595327372
            ],
            [
              69.6697998046875,
              28.202767685948402
            ],
            [
              69.664306640625,
              28.197926557226154
            ],
            [
              69.5928955078125,
              28.15918963404671
            ],
            [
              69.532470703125,
              28.139815912754443
            ],
            [
              69.5159912109375,
              28.130127737874005
            ],
            [
              69.510498046875,
              28.12528332196176
            ],
            [
              69.49951171875,
              28.115593833316765
            ],
            [
              69.4830322265625,
              28.105903469076182
            ],
            [
              69.466552734375,
              28.09136628140695
            ]
          ],
          [
            [
              70.1531982421875,
              28.565225490654655
            ],
            [
              70.1422119140625,
              28.560400880492836
            ],
            [
              70.081787109375,
              28.507315578441776
            ],
            [
              69.9664306640625,
              28.444543948574818
            ],
            [
              69.8785400390625,
              28.376902046539783
            ],
            [
              69.8455810546875,
              28.357567857801698
            ],
            [
              69.7686767578125,
              28.318888915773826
            ]
          ],
          [
            [
              70.2301025390625,
              28.61828159998386
            ],
            [
              70.2191162109375,
              28.598991567705653
            ],
            [
              70.2191162109375,
              28.594168506232606
            ],
            [
              70.2081298828125,
              28.584521719370414
            ],
            [
              70.1971435546875,
              28.579697994029345
            ],
            [
              70.1641845703125,
              28.5700498796474
            ],
            [
              70.1531982421875,
              28.565225490654655
            ]
          ],
          [
            [
              70.279541015625,
              28.66649117698661
            ],
            [
              70.24658203125,
              28.642389157900524
            ],
            [
              70.2410888671875,
              28.637568089327843
            ],
            [
              70.235595703125,
              28.627925287618567
            ],
            [
              70.2301025390625,
              28.61828159998386
            ]
          ],
          [
            [
              70.6585693359375,
              28.9552822929746
            ],
            [
              70.5926513671875,
              28.892778864518306
            ],
            [
              70.5816650390625,
              28.8831596093235
            ],
            [
              70.5047607421875,
              28.84467368077179
            ],
            [
              70.4937744140625,
              28.839861937967967
            ],
            [
              70.4168701171875,
              28.772474183943032
            ],
            [
              70.411376953125,
              28.772474183943032
            ],
            [
              70.3509521484375,
              28.743580382306135
            ],
            [
              70.3399658203125,
              28.73876397137029
            ],
            [
              70.3289794921875,
              28.724313406473485
            ],
            [
              70.301513671875,
              28.690587654250706
            ],
            [
              70.279541015625,
              28.66649117698661
            ]
          ],
          [
            [
              71.0321044921875,
              29.243270277106987
            ],
            [
              71.026611328125,
              29.233683670282787
            ],
            [
              70.99365234375,
              29.185737173254438
            ],
            [
              70.9881591796875,
              29.17614518255975
            ],
            [
              70.9771728515625,
              29.17614518255975
            ],
            [
              70.83984375,
              29.10897615145302
            ],
            [
              70.8343505859375,
              29.104176683949987
            ],
            [
              70.784912109375,
              29.04656562272885
            ],
            [
              70.77392578125,
              29.041763247401377
            ],
            [
              70.718994140625,
              29.012944302424856
            ],
            [
              70.7080078125,
              29.008140362978153
            ],
            [
              70.6585693359375,
              28.9552822929746
            ]
          ],
          [
            [
              71.1419677734375,
              29.319930789777587
            ],
            [
              71.0321044921875,
              29.243270277106987
            ]
          ],
          [
            [
              71.1968994140625,
              29.358239465729355
            ],
            [
              71.1419677734375,
              29.319930789777587
            ]
          ],
          [
            [
              71.3287353515625,
              29.6116701151974
            ],
            [
              71.2353515625,
              29.482643134466613
            ],
            [
              71.2353515625,
              29.473079031558157
            ],
            [
              71.2298583984375,
              29.434813598289637
            ],
            [
              71.2298583984375,
              29.430029404571755
            ],
            [
              71.224365234375,
              29.42046034101314
            ],
            [
              71.2188720703125,
              29.410890376108995
            ],
            [
              71.21337890625,
              29.40610505570929
            ],
            [
              71.2078857421875,
              29.382175075145284
            ],
            [
              71.2078857421875,
              29.37738840347899
            ],
            [
              71.202392578125,
              29.372601506681406
            ],
            [
              71.1968994140625,
              29.358239465729355
            ]
          ],
          [
            [
              71.3836669921875,
              29.850173125689892
            ],
            [
              71.3616943359375,
              29.812050767525065
            ],
            [
              71.3616943359375,
              29.802517905764446
            ],
            [
              71.3616943359375,
              29.79775113417307
            ],
            [
              71.356201171875,
              29.73576244444908
            ],
            [
              71.3507080078125,
              29.688052749856794
            ],
            [
              71.334228515625,
              29.6212211137845
            ],
            [
              71.3287353515625,
              29.6116701151974
            ]
          ],
          [
            [
              71.5484619140625,
              30.121373087823045
            ],
            [
              71.5374755859375,
              30.107117887092386
            ],
            [
              71.52099609375,
              30.10236569641242
            ],
            [
              71.5155029296875,
              30.097613277217135
            ],
            [
              71.43310546875,
              30.07860131571654
            ],
            [
              71.4276123046875,
              30.07860131571654
            ],
            [
              71.4056396484375,
              30.07860131571654
            ],
            [
              71.3946533203125,
              30.07860131571654
            ],
            [
              71.3836669921875,
              30.073847754270204
            ],
            [
              71.378173828125,
              30.064339946244303
            ],
            [
              71.3726806640625,
              30.059585699708208
            ],
            [
              71.3726806640625,
              30.05483122485245
            ],
            [
              71.3726806640625,
              30.045321590268856
            ],
            [
              71.378173828125,
              30.03581104266779
            ],
            [
              71.3836669921875,
              30.0262995822237
            ],
            [
              71.3836669921875,
              30.021543509740027
            ],
            [
              71.38916015625,
              30.007273923504556
            ],
            [
              71.38916015625,
              30.00251693857068
            ],
            [
              71.3836669921875,
              29.978728593469924
            ],
            [
              71.3836669921875,
              29.969211659636656
            ],
            [
              71.400146484375,
              29.912090918781473
            ],
            [
              71.400146484375,
              29.89780561015587
            ],
            [
              71.400146484375,
              29.888280933159265
            ],
            [
              71.400146484375,
              29.878755346037977
            ],
            [
              71.3836669921875,
              29.850173125689892
            ]
          ],
          [
            [
              71.597900390625,
              30.1641263431611
            ],
            [
              71.5869140625,
              30.149877316442073
            ],
            [
              71.5484619140625,
              30.121373087823045
            ]
          ],
          [
            [
              71.707763671875,
              30.216355152668555
            ],
            [
              71.69677734375,
              30.211608223816924
            ],
            [
              71.6748046875,
              30.206861065952623
            ],
            [
              71.6583251953125,
              30.192618218499277
            ],
            [
              71.6143798828125,
              30.17362455035854
            ],
            [
              71.597900390625,
              30.1641263431611
            ]
          ],
          [
            [
              71.8450927734375,
              30.315987718557864
            ],
            [
              71.8450927734375,
              30.30650325984884
            ],
            [
              71.8450927734375,
              30.29701788337205
            ],
            [
              71.8450927734375,
              30.287531589298723
            ],
            [
              71.8505859375,
              30.282788098216884
            ],
            [
              71.8560791015625,
              30.27804437780013
            ],
            [
              71.8505859375,
              30.27330042806996
            ],
            [
              71.82861328125,
              30.254322336443437
            ],
            [
              71.806640625,
              30.240086360983426
            ],
            [
              71.7901611328125,
              30.235340577517945
            ],
            [
              71.7462158203125,
              30.221101852485987
            ],
            [
              71.707763671875,
              30.216355152668555
            ]
          ]
        ]
      },
      "properties": {
        "length": 0,
        "name": "M5",
        "route": "Sukkur-Multan",
        "gcop_source_layer": "motorways",
        "gcop_map_layer": "motorways_label"
      }
    },
    {
      "type": "Feature",
      "geometry": {
        "type": "LineString",
        "coordinates": [
          [
            67.181396484375,
            24.99103698246374
          ],
          [
            67.181396484375,
            25.010950810695277
          ],
          [
            67.1649169921875,
            25.030861410390443
          ],
          [
            67.159423828125,
            25.040815498949115
          ],
          [
            67.1539306640625,
            25.04579224030344
          ],
          [
            67.1209716796875,
            25.065697185535882
          ],
          [
            67.093505859375,
            25.08559889706477
          ],
          [
            67.0880126953125,
            25.08559889706477
          ],
          [
            67.0550537109375,
            25.080623772444838
          ],
          [
            67.0166015625,
            25.075648445630534
          ],
          [
            67.005615234375,
            25.065697185535882
          ],
          [
            66.99462890625,
            25.03583855563501
          ],
          [
            66.9891357421875,
            25.02588406324483
          ],
          [
            66.9671630859375,
            25.010950810695277
          ],
          [
            66.9561767578125,
            25.005972656239194
          ],
          [
            66.9451904296875,
            24.996015742094002
          ],
          [
            66.9287109375,
            24.98107885823501
          ],
          [
            66.9122314453125,
            24.976099493695415
          ],
          [
            66.917724609375,
            24.966140159912968
          ],
          [
            66.9232177734375,
            24.961160190729046
          ],
          [
            66.9287109375,
            24.95119964792312
          ],
          [
            66.95068359375,
            24.91633140459909
          ],
          [
            66.97265625,
            24.90138485280086
          ],
          [
            66.97265625,
            24.896402266558724
          ],
          [
            66.983642578125,
            24.891419479211137
          ],
          [
            66.9671630859375,
            24.87646991083153
          ],
          [
            66.9781494140625,
            24.87148631935797
          ]
        ]
      },
      "properties": {
        "length": 57,
        "name": "M-10",
        "route": "Karachi Northern Bypass",
        "gcop_source_layer": "motorways",
        "gcop_map_layer": "motorways_label"
      }
    }
  ]
}